IRIDIUM 136             
1 42962U 17061H   23257.77291298  .00000158  00000+0  49223-4 0  9999
2 42962  86.3912  85.8568 0002294  92.0693 268.0766 14.34218890310582
